NORAD_CAT_ID,OBJECT_NAME,OBJECT_TYPE,EPOCH,MEAN_MOTION,ECCENTRICITY,INCLINATION,RA_OF_ASC_NODE,ARG_OF_PERICENTER,MEAN_ANOMALY,BSTAR,MEAN_MOTION_DOT,MEAN_MOTION_DDOT,TLE_LINE0,TLE_LINE1,TLE_LINE2,SEMIMAJOR_AXIS,PERIOD,APOGEE,PERIGEE,DECAYED
51752.0,STARLINK-3511,PAYLOAD,2022-05-01 14:00:01,15.63257003,0.0001133,53.2172,158.3521,58.8865,312.1329,-0.0083304,-0.00713538,0.0,0 STARLINK-3511,1 51752U 22016AQ  22121.58334491 -.00713538  00000-0 -83304-2 0  9995,2 51752  53.2172 158.3521 0001133  58.8865 312.1329 15.63257003 12124,6756.393,92.115,379.024,377.49300000000005,0.0
51752.0,STARLINK-3511,PAYLOAD,2022-05-01 22:00:01,15.62746218,0.0001218,53.2174,156.7244,53.3883,34.369,-0.0084897,-0.00712762,0.0,0 STARLINK-3511,1 51752U 22016AQ  22121.91668981 -.00712762  00000-0 -84897-2 0  9992,2 51752  53.2174 156.7244 0001218  53.3883  34.3690 15.62746218  3713,6757.865,92.145,380.554,378.907,0.0
51752.0,STARLINK-3511,PAYLOAD,2022-05-02 14:00:01,15.61726326,0.0001257,53.2173,153.4788,68.10600000000001,171.0884,-0.0088247,-0.00711932,0.0,0 STARLINK-3511,1 51752U 22016AQ  22122.58334491 -.00711932  00000-0 -88247-2 0  9993,2 51752  53.2173 153.4788 0001257  68.1060 171.0884 15.61726326 12286,6760.807,92.206,383.522,381.822,0.0
51752.0,STARLINK-3511,PAYLOAD,2022-05-02 22:00:01,15.61205021,0.000125,53.2169,151.856,47.54,266.5576,-0.0087842,-0.00695818,0.0,0 STARLINK-3511,1 51752U 22016AQ  22122.91668981 -.00695818  00000-0 -87842-2 0  9998,2 51752  53.2169 151.8560 0001250  47.5400 266.5576 15.61205021  3667,6762.312,92.236,385.022,383.332,0.0
51752.0,STARLINK-3511,PAYLOAD,2022-05-03 14:00:01,15.60197789,0.00012,53.217,148.6171,59.2902,42.5632,-0.0093944,-0.00714055,0.0,0 STARLINK-3511,1 51752U 22016AQ  22123.58334491 -.00714055  00000-0 -93944-2 0  9993,2 51752  53.2170 148.6171 0001200  59.2902  42.5632 15.60197789 12433,6765.222,92.296,387.899,386.275,0.0
51752.0,STARLINK-3511,PAYLOAD,2022-05-03 22:00:00,15.59686786,0.0001332,53.2171,146.9969,56.8923,117.957,-0.0095584,-0.00712538,0.0,0 STARLINK-3511,1 51752U 22016AQ  22123.91667824 -.00712538  00000-0 -95584-2 0  9995,2 51752  53.2171 146.9969 0001332  56.8923 117.9570 15.59686786  3708,6766.7,92.326,389.466,387.664,0.0
51752.0,STARLINK-3511,PAYLOAD,2022-05-04 14:00:01,15.58668744,0.0001177,53.2172,143.7663,60.0182,258.97900000000004,-0.0099706,-0.00714664,0.0,0 STARLINK-3511,1 51752U 22016AQ  22124.58334491 -.00714664  00000-0 -99706-2 0  9992,2 51752  53.2172 143.7663 0001177  60.0182 258.9790 15.58668744 12596,6769.646,92.387,392.3080000000001,390.714,0.0
51752.0,STARLINK-3511,PAYLOAD,2022-05-04 22:00:01,15.5815651,0.000116,53.2173,142.1498,53.5813,336.6393,-0.010131,-0.00712364,0.0,0 STARLINK-3511,1 51752U 22016AQ  22124.91668981 -.00712364  00000-0 -10131-1 0  9992,2 51752  53.2173 142.1498 0001160  53.5813 336.6393 15.58156510  3716,6771.13,92.417,393.78,392.209,0.0
51752.0,STARLINK-3511,PAYLOAD,2022-05-05 14:00:01,15.57138765,0.0001329,53.2171,138.9265,62.7629,107.8641,-0.010576,-0.00715367,0.0,0 STARLINK-3511,1 51752U 22016AQ  22125.58334491 -.00715367  00000-0 -10576-1 0  9991,2 51752  53.2171 138.9265 0001329  62.7629 107.8641 15.57138765  3718,6774.08,92.477,396.845,395.044,0.0
51752.0,STARLINK-3511,PAYLOAD,2022-05-05 16:00:00,15.57006704,0.0001351999999999,53.2167,138.5238,55.1871,222.828,-0.010512,-0.00708166,0.0,0 STARLINK-3511,1 51752U 22016AQ  22125.66667824 -.00708166  00000-0 -10512-1 0  9998,2 51752  53.2167 138.5238 0001352  55.1871 222.8280 15.57006704 12769,6774.4630000000025,92.485,397.244,395.412,0.0
51752.0,STARLINK-3511,PAYLOAD,2022-05-05 22:00:00,15.56540171,0.0001359,53.2165,137.3154,45.74100000000001,194.2472,-0.0088352999999999,-0.0059342,0.0,0 STARLINK-3511,1 51752U 22016AQ  22125.91667824 -.00593420  00000-0 -88353-2 0  9990,2 51752  53.2165 137.3154 0001359  45.7410 194.2472 15.56540171  3677,6775.816,92.513,398.602,396.76,0.0
51752.0,STARLINK-3511,PAYLOAD,2022-05-06 14:00:01,15.55608694,0.0001196,53.2171,134.09799999999998,54.0442,322.6966,-0.011175,-0.00713943,0.0,0 STARLINK-3511,1 51752U 22016AQ  22126.58334491 -.00713943  00000-0 -11175-1 0  9996,2 51752  53.2171 134.0980 0001196  54.0442 322.6966 15.55608694 12907,6778.521,92.568,401.197,399.575,0.0
51752.0,STARLINK-3511,PAYLOAD,2022-05-07 14:00:01,15.54079461,0.0001324,53.2171,129.2804,65.1289,152.2112,-0.011862,-0.00716022,0.0,0 STARLINK-3511,1 51752U 22016AQ  22127.58334491 -.00716022  00000-0 -11862-1 0  9991,2 51752  53.2171 129.2804 0001324  65.1289 152.2112 15.54079461 13064,6782.967,92.659,405.73,403.934,0.0
51752.0,STARLINK-3511,PAYLOAD,2022-05-07 22:00:00,15.53566705,0.0001212,53.2173,127.6752,73.5873,209.3955,-0.012,-0.00711269,0.0,0 STARLINK-3511,1 51752U 22016AQ  22127.91667824 -.00711269  00000-0 -12000-1 0  9990,2 51752  53.2173 127.6752 0001212  73.5873 209.3955 15.53566705  3764,6784.459,92.69,407.147,405.502,0.0
51752.0,STARLINK-3511,PAYLOAD,2022-05-08 14:00:01,15.52548367,0.0001222,53.2172,124.4738,54.4481,357.9763,-0.012486,-0.00712949,0.0,0 STARLINK-3511,1 51752U 22016AQ  22128.58334491 -.00712949  00000-0 -12486-1 0  9999,2 51752  53.2172 124.4738 0001222  54.4481 357.9763 15.52548367  3700,6787.426,92.751,410.12,408.461,0.0
51752.0,STARLINK-3511,PAYLOAD,2022-05-08 20:00:01,15.52163695,0.0001204,53.2174,123.2725,53.4218,316.9136,-0.012604,-0.00709983,0.0,0 STARLINK-3511,1 51752U 22016AQ  22128.83334491 -.00709983  00000-0 -12604-1 0  9993,2 51752  53.2174 123.2725 0001204  53.4218 316.9136 15.52163695 13259,6788.547,92.774,411.229,409.595,0.0
51752.0,STARLINK-3511,PAYLOAD,2022-05-08 22:00:00,15.52038377,0.0001383,53.2174,122.8726,52.4058,63.822,-0.012735,-0.00713798,0.0,0 STARLINK-3511,1 51752U 22016AQ  22128.91667824 -.00713798  00000-0 -12735-1 0  9995,2 51752  53.2174 122.8726 0001383  52.4058  63.8220 15.52038377  3703,6788.9119999999975,92.781,411.716,409.838,0.0
51752.0,STARLINK-3511,PAYLOAD,2022-05-09 14:00:01,15.51019426,0.0001343,53.2172,119.6782,65.0306,177.0272,-0.013241,-0.00724448,0.0,0 STARLINK-3511,1 51752U 22016AQ  22129.58335648 -.00724448  00000-0 -13241-1 0  9992,2 51752  53.2172 119.6782 0001343  65.0306 177.0272 15.51019426  3707,6791.885,92.842,414.663,412.838,0.0
51752.0,STARLINK-3511,PAYLOAD,2022-05-09 22:00:00,15.50488856,0.0001303,53.2174,118.0811,65.2724,238.6902,-0.012586,-0.00670885,0.0,0 STARLINK-3511,1 51752U 22016AQ  22129.91667824 -.00670885  00000-0 -12586-1 0  9999,2 51752  53.2174 118.0811 0001303  65.2724 238.6902 15.50488856  3707,6793.435,92.874,416.185,414.415,0.0
51752.0,STARLINK-3511,PAYLOAD,2022-05-10 00:00:00,15.50311662,0.0001211,53.2175,117.6828,60.1005,349.2662,-0.010049,-0.00541184,0.0,0 STARLINK-3511,1 51752U 22016AQ  22130.00001157 -.00541184  00000-0 -10049-1 0  9993,2 51752  53.2175 117.6828 0001211  60.1005 349.2662 15.50311662 13438,6793.9519999999975,92.885,416.64,414.995,0.0
51752.0,STARLINK-3511,PAYLOAD,2022-05-10 08:00:01,15.49885862,0.00016,53.2174,116.091,42.5547,67.9976,-1.6044e-05,-1.362e-05,0.0,0 STARLINK-3511,1 51752U 22016AQ  22130.33334491 -.00001362  00000-0 -16044-4 0  9992,2 51752  53.2174 116.0910 0001600  42.5547  67.9976 15.49885862 13493,6795.196999999999,92.91,418.149,415.974,0.0
51752.0,STARLINK-3511,PAYLOAD,2022-05-10 14:00:01,15.49808199,0.0001347,53.2151,114.8983,64.7882,1.5997,-0.00098719,-0.0005593,0.0,0 STARLINK-3511,1 51752U 22016AQ  22130.58334491 -.00055930  00000-0 -98719-3 0  9997,2 51752  53.2151 114.8983 0001347  64.7882   1.5997 15.49808199  3708,6795.424,92.915,418.204,416.37300000000016,0.0
51752.0,STARLINK-3511,PAYLOAD,2022-05-10 18:00:00,15.49925566,0.0001319,53.2127,114.1052,57.4506,219.4049,-0.00048169,-0.00027732,0.0,0 STARLINK-3511,1 51752U 22016AQ  22130.75001157 -.00027732  00000-0 -48169-3 0  9999,2 51752  53.2127 114.1052 0001319  57.4506 219.4049 15.49925566 13552,6795.081,92.908,417.842,416.049,0.0
51752.0,STARLINK-3511,PAYLOAD,2022-05-11 22:00:00,15.4986384,0.0001134,53.2137,108.5284,52.5204,257.5998,0.00070849,0.00039934,0.0,0 STARLINK-3511,1 51752U 22016AQ  22131.91667824  .00039934  00000-0  70849-3 0  9992,2 51752  53.2137 108.5284 0001134  52.5204 257.5998 15.49863840 13735,6795.261,92.911,417.897,416.355,0.0
51752.0,STARLINK-3511,PAYLOAD,2022-05-12 14:00:01,15.49910962,0.0001264999999999,53.213,105.343,46.3099,25.6248,-0.00028811,-0.00016783,0.0,0 STARLINK-3511,1 51752U 22016AQ  22132.58334491 -.00016783  00000-0 -28811-3 0  9998,2 51752  53.2130 105.3430 0001265  46.3099  25.6248 15.49910962  1304,6795.123000000001,92.909,417.848,416.129,0.0
51752.0,STARLINK-3511,PAYLOAD,2022-05-12 20:00:01,15.49883533,0.0001158,53.213,104.1469,54.2396,333.4047,0.0011064999999999,0.00062851,0.0,0 STARLINK-3511,1 51752U 22016AQ  22132.83334491  .00062851  00000-0  11065-2 0  9993,2 51752  53.2130 104.1469 0001158  54.2396 333.4047 15.49883533 13877,6795.203,92.91,417.855,416.282,0.0
51752.0,STARLINK-3511,PAYLOAD,2022-05-12 22:00:00,15.499069400000002,0.0001196,53.2133,103.7488,57.07,75.7997,0.00060497,0.0003406,0.0,0 STARLINK-3511,1 51752U 22016AQ  22132.91667824  .00034060  00000-0  60497-3 0  9996,2 51752  53.2133 103.7488 0001196  57.0700  75.7997 15.49906940  1301,6795.135,92.909,417.81300000000016,416.187,0.0
51752.0,STARLINK-3511,PAYLOAD,2022-05-13 06:00:00,15.49941682,0.0001439,53.2131,102.1576,50.0875,143.733,-0.0013045,-0.00073942,0.0,0 STARLINK-3511,1 51752U 22016AQ  22133.25001157 -.00073942  00000-0 -13045-2 0  9995,2 51752  53.2131 102.1576 0001439  50.0875 143.7330 15.49941682 13948,6795.034000000002,92.907,417.876,415.921,0.0
51752.0,STARLINK-3511,PAYLOAD,2022-05-13 14:00:01,15.49985674,0.0001238,53.2142,100.5604,56.4533,198.2982,-0.0047831,-0.00263913,0.0,0 STARLINK-3511,1 51752U 22016AQ  22133.58334491 -.00263913  00000-0 -47831-2 0  9990,2 51752  53.2142 100.5604 0001238  56.4533 198.2982 15.49985674  1306,6794.905,92.904,417.611,415.929,0.0
